ORBCOMM FM115           
1 41186U 15081H   25150.35600556  .00000732  00000+0  17745-3 0  9996
2 41186  46.9974 124.3593 0001544 309.2852  50.7898 14.62471842505164
ORBCOMM FM108           
1 41187U 15081J   25150.42362825  .00000506  00000+0  14548-3 0  9996
2 41187  47.0037 190.8602 0003622 244.6012 115.4499 14.58127661504207
ORBCOMM FM117           
1 41188U 15081K   25150.38980401  .00000485  00000+0  14097-3 0  9993
2 41188  46.9999 189.7873 0004121 249.1817 110.8627 14.58130822504247
ORBCOMM FM116           
1 41189U 15081L   25150.37869948  .00000902  00000+0  23037-3 0  9993
2 41189  47.0024 279.6874 0001399  77.7183 282.3859 14.58146407503050
